[
    {
        "Altitude(m)": 624790.7794936682,
        "Argument of Periapsis(deg)": 0.0,
        "Eccentricity": 0.0,
        "Inclination(deg)": 60.0,
        "Latitude(deg)": -59.14706839303318,
        "Longitude(deg)": 51.03474437203896,
        "Mean Anomaly(deg)": -81.81820000000006,
        "RAAN(deg)": 225.0,
        "Satellite Name": "Test1 1007",
        "Satellite Number": 1007,
        "Semi-Major Axis(m)": 6980739.136638005,
        "Time(s)": 0
    },
    {
        "Altitude(m)": 624737.433985701,
        "Argument of Periapsis(deg)": 0.00010418945913296404,
        "Eccentricity": 0.0,
        "Inclination(deg)": 60.0,
        "Latitude(deg)": -58.99452192392874,
        "Longitude(deg)": 52.15424401849414,
        "Mean Anomaly(deg)": -81.1980938545382,
        "RAAN(deg)": 224.99957995086024,
        "Satellite Name": "Test1 1007",
        "Satellite Number": 1007,
        "Semi-Major Axis(m)": 6980739.136638005,
        "Time(s)": 10
    }
]